[Satellite]
VERSION=1.1
NAME=GOMX-4A
NICKNAME=GOMX-4A
TLE1=1 43197U 18015F   22342.48827174  .00010611  00000+0  34720-3 0  9990
TLE2=2 43197  97.5538 125.3490 0016690 157.3460 276.2807 15.31748672269839
STATUS=0
